{"type": "FeatureCollection", "features": [ {"type": "Feature", "properties": {"norad_id": 35480, "name": "IRIDIUM 33 DEB", "group": "iridium-33-debris", "lat": -59.87090832607663, "lon": 20.05654476292095, "alt_km": 744.7106918852214, "timestamp": "2025-12-09T09:46:48.030978+00:00", "meta": {"OBJECT_NAME": "IRIDIUM 33 DEB", "OBJECT_ID": "1997-051QA", "EPOCH": "2025-12-01T21:29:27.496896", "MEAN_MOTION": 14.49686619, "ECCENTRICITY": 0.00155495, "INCLINATION": 86.3575, "RA_OF_ASC_NODE": 29.6125, "ARG_OF_PERICENTER": 136.7189, "MEAN_ANOMALY": 223.524, "EPHEMERIS_TYPE": 0, "CLASSIFICATION_TYPE": "U", "NORAD_CAT_ID": 35480, "ELEMENT_SET_NO": 999, "REV_AT_EPOCH": 86874, "BSTAR": 0.000651702, "MEAN_MOTION_DOT": 2.53e-05, "MEAN_MOTION_DDOT": 0}, "tle": {"line1": "1 35480U 97051QA  25335.89545714  .00002530  00000+0  65170-3 0  9994", "line2": "2 35480  86.3575  29.6125 0015549 136.7189 223.5240 14.49686619868745"}}, "geometry": {"type": "Point", "coordinates": [20.05654476292095, -59.87090832607663]}}, {"type": "Feature", "properties": {"norad_id": 35484, "name": "IRIDIUM 33 DEB", "group": "iridium-33-debris", "lat": -61.73529972371101, "lon": -178.8974031406773, "alt_km": 583.7644686191497, "timestamp": "2025-12-09T09:46:48.031000+00:00", "meta": {"OBJECT_NAME": "IRIDIUM 33 DEB", "OBJECT_ID": "1997-051QE", "EPOCH": "2025-12-08T18:16:45.445440", "MEAN_MOTION": 14.98255885, "ECCENTRICITY": 0.00231436, "INCLINATION": 86.3606, "RA_OF_ASC_NODE": 354.6057, "ARG_OF_PERICENTER": 138.3484, "MEAN_ANOMALY": 221.9516, "EPHEMERIS_TYPE": 0, "CLASSIFICATION_TYPE": "U", "NORAD_CAT_ID": 35484, "ELEMENT_SET_NO": 999, "REV_AT_EPOCH": 61956, "BSTAR": 0.0033289161, "MEAN_MOTION_DOT": 0.00039967, "MEAN_MOTION_DDOT": 0}, "tle": {"line1": "1 35484U 97051QE  25342.76163710  .00039967  00000+0  33289-2 0  9993", "line2": "2 35484  86.3606 354.6057 0023143 138.3484 221.9516 14.98255885619567"}}, "geometry": {"type": "Point", "coordinates": [-178.8974031406773, -61.73529972371101]}}, {"type": "Feature", "properties": {"norad_id": 35488, "name": "IRIDIUM 33 DEB", "group": "iridium-33-debris", "lat": 3.1171670116030787, "lon": 122.21344775289073, "alt_km": 634.4932118857059, "timestamp": "2025-12-09T09:46:48.031019+00:00", "meta": {"OBJECT_NAME": "IRIDIUM 33 DEB", "OBJECT_ID": "1997-051QJ", "EPOCH": "2025-12-08T21:39:05.105088", "MEAN_MOTION": 14.8290127, "ECCENTRICITY": 0.0030312, "INCLINATION": 86.3246, "RA_OF_ASC_NODE": 302.6469, "ARG_OF_PERICENTER": 55.0525, "MEAN_ANOMALY": 305.3538, "EPHEMERIS_TYPE": 0, "CLASSIFICATION_TYPE": "U", "NORAD_CAT_ID": 35488, "ELEMENT_SET_NO": 999, "REV_AT_EPOCH": 88209, "BSTAR": 0.0019549, "MEAN_MOTION_DOT": 0.00016018, "MEAN_MOTION_DDOT": 0}, "tle": {"line1": "1 35488U 97051QJ  25342.90214242  .00016018  00000+0  19549-2 0  9995", "line2": "2 35488  86.3246 302.6469 0030312  55.0525 305.3538 14.82901270882098"}}, "geometry": {"type": "Point", "coordinates": [122.21344775289073, 3.1171670116030787]}}, {"type": "Feature", "properties": {"norad_id": 35616, "name": "IRIDIUM 33 DEB", "group": "iridium-33-debris", "lat": -9.526340185081226, "lon": -13.326955925672067, "alt_km": 634.9533026705931, "timestamp": "2025-12-09T09:46:48.031044+00:00", "meta": {"OBJECT_NAME": "IRIDIUM 33 DEB", "OBJECT_ID": "1997-051QN", "EPOCH": "2025-12-08T11:07:50.751840", "MEAN_MOTION": 14.81642207, "ECCENTRICITY": 0.00095137, "INCLINATION": 86.3551, "RA_OF_ASC_NODE": 347.7164, "ARG_OF_PERICENTER": 179.1989, "MEAN_ANOMALY": 180.925, "EPHEMERIS_TYPE": 0, "CLASSIFICATION_TYPE": "U", "NORAD_CAT_ID": 35616, "ELEMENT_SET_NO": 999, "REV_AT_EPOCH": 87511, "BSTAR": 0.0020633393, "MEAN_MOTION_DOT": 0.00016284, "MEAN_MOTION_DDOT": 0}, "tle": {"line1": "1 35616U 97051QN  25342.46378185  .00016284  00000+0  20633-2 0  9997", "line2": "2 35616  86.3551 347.7164 0009513 179.1989 180.9250 14.81642207875117"}}, "geometry": {"type": "Point", "coordinates": [-13.326955925672067, -9.526340185081226]}}, {"type": "Feature", "properties": {"norad_id": 35618, "name": "IRIDIUM 33 DEB", "group": "iridium-33-debris", "lat": 70.01943052518591, "lon": 164.8214086292063, "alt_km": 706.6114740232197, "timestamp": "2025-12-09T09:46:48.031061+00:00", "meta": {"OBJECT_NAME": "IRIDIUM 33 DEB", "OBJECT_ID": "1997-051QQ", "EPOCH": "2025-12-05T07:42:53.148672", "MEAN_MOTION": 14.52258119, "ECCENTRICITY": 0.00302089, "INCLINATION": 86.3407, "RA_OF_ASC_NODE": 356.7447, "ARG_OF_PERICENTER": 46.3254, "MEAN_ANOMALY": 314.0448, "EPHEMERIS_TYPE": 0, "CLASSIFICATION_TYPE": "U", "NORAD_CAT_ID": 35618, "ELEMENT_SET_NO": 999, "REV_AT_EPOCH": 65286, "BSTAR": 0.00091388234, "MEAN_MOTION_DOT": 3.753e-05, "MEAN_MOTION_DDOT": 0}, "tle": {"line1": "1 35618U 97051QQ  25339.32144848  .00003753  00000+0  91388-3 0  9990", "line2": "2 35618  86.3407 356.7447 0030208  46.3254 314.0448 14.52258119652865"}}, "geometry": {"type": "Point", "coordinates": [164.8214086292063, 70.01943052518591]}}, {"type": "Feature", "properties": {"norad_id": 35620, "name": "IRIDIUM 33 DEB", "group": "iridium-33-debris", "lat": -82.34931427193288, "lon": 66.91499671901526, "alt_km": 671.6535337510932, "timestamp": "2025-12-09T09:46:48.031078+00:00", "meta": {"OBJECT_NAME": "IRIDIUM 33 DEB", "OBJECT_ID": "1997-051QS", "EPOCH": "2025-12-08T09:10:03.259488", "MEAN_MOTION": 14.37817712, "ECCENTRICITY": 0.01428944, "INCLINATION": 86.3872, "RA_OF_ASC_NODE": 219.2913, "ARG_OF_PERICENTER": 273.357, "MEAN_ANOMALY": 85.129, "EPHEMERIS_TYPE": 0, "CLASSIFICATION_TYPE": "U", "NORAD_CAT_ID": 35620, "ELEMENT_SET_NO": 999, "REV_AT_EPOCH": 59903, "BSTAR": 0.0061742604, "MEAN_MOTION_DOT": 0.00020996, "MEAN_MOTION_DDOT": 0}, "tle": {"line1": "1 35620U 97051QS  25342.38198217  .00020996  00000+0  61743-2 0  9991", "line2": "2 35620  86.3872 219.2913 0142894 273.3570  85.1290 14.37817712599036"}}, "geometry": {"type": "Point", "coordinates": [66.91499671901526, -82.34931427193288]}}, {"type": "Feature", "properties": {"norad_id": 35622, "name": "IRIDIUM 33 DEB", "group": "iridium-33-debris", "lat": -84.76221675117962, "lon": -141.13907095512198, "alt_km": 559.817415978905, "timestamp": "2025-12-09T09:46:48.031095+00:00", "meta": {"OBJECT_NAME": "IRIDIUM 33 DEB", "OBJECT_ID": "1997-051QU", "EPOCH": "2025-12-08T18:19:37.394400", "MEAN_MOTION": 15.03927644, "ECCENTRICITY": 0.00075851, "INCLINATION": 86.2056, "RA_OF_ASC_NODE": 265.5603, "ARG_OF_PERICENTER": 342.656, "MEAN_ANOMALY": 47.239, "EPHEMERIS_TYPE": 0, "CLASSIFICATION_TYPE": "U", "NORAD_CAT_ID": 35622, "ELEMENT_SET_NO": 999, "REV_AT_EPOCH": 87300, "BSTAR": 0.0061817818, "MEAN_MOTION_DOT": 0.00086206, "MEAN_MOTION_DDOT": 0}, "tle": {"line1": "1 35622U 97051QU  25342.76362725  .00086206  00000+0  61818-2 0  9991", "line2": "2 35622  86.2056 265.5603 0007585 342.6560  47.2390 15.03927644873009"}}, "geometry": {"type": "Point", "coordinates": [-141.13907095512198, -84.76221675117962]}}, {"type": "Feature", "properties": {"norad_id": 35628, "name": "IRIDIUM 33 DEB", "group": "iridium-33-debris", "lat": -3.86993012336562, "lon": -169.1914465781639, "alt_km": 680.2279015121931, "timestamp": "2025-12-09T09:46:48.031112+00:00", "meta": {"OBJECT_NAME": "IRIDIUM 33 DEB", "OBJECT_ID": "1997-051RA", "EPOCH": "2025-12-08T19:51:11.189376", "MEAN_MOTION": 14.67493768, "ECCENTRICITY": 0.00109309, "INCLINATION": 86.3576, "RA_OF_ASC_NODE": 10.8203, "ARG_OF_PERICENTER": 356.3974, "MEAN_ANOMALY": 3.7159, "EPHEMERIS_TYPE": 0, "CLASSIFICATION_TYPE": "U", "NORAD_CAT_ID": 35628, "ELEMENT_SET_NO": 999, "REV_AT_EPOCH": 86389, "BSTAR": 0.0020097942, "MEAN_MOTION_DOT": 0.00011424, "MEAN_MOTION_DDOT": 0}, "tle": {"line1": "1 35628U 97051RA  25342.82721284  .00011424  00000+0  20098-2 0  9998", "line2": "2 35628  86.3576  10.8203 0010930 356.3974   3.7159 14.67493768863899"}}, "geometry": {"type": "Point", "coordinates": [-169.1914465781639, -3.86993012336562]}}, {"type": "Feature", "properties": {"norad_id": 35631, "name": "IRIDIUM 33 DEB", "group": "iridium-33-debris", "lat": -37.786320344482206, "lon": 19.58999951152888, "alt_km": 753.7048868935208, "timestamp": "2025-12-09T09:46:48.031129+00:00", "meta": {"OBJECT_NAME": "IRIDIUM 33 DEB", "OBJECT_ID": "1997-051RD", "EPOCH": "2025-12-06T21:23:47.071392", "MEAN_MOTION": 14.47286545, "ECCENTRICITY": 0.00185223, "INCLINATION": 86.3689, "RA_OF_ASC_NODE": 23.4943, "ARG_OF_PERICENTER": 135.5581, "MEAN_ANOMALY": 46.1978, "EPHEMERIS_TYPE": 0, "CLASSIFICATION_TYPE": "U", "NORAD_CAT_ID": 35631, "ELEMENT_SET_NO": 999, "REV_AT_EPOCH": 87112, "BSTAR": 0.00062002851, "MEAN_MOTION_DOT": 2.292e-05, "MEAN_MOTION_DDOT": 0}, "tle": {"line1": "1 35631U 97051RD  25340.89151703  .00002292  00000+0  62003-3 0  9996", "line2": "2 35631  86.3689  23.4943 0018522 135.5581  46.1978 14.47286545871121"}}, "geometry": {"type": "Point", "coordinates": [19.58999951152888, -37.786320344482206]}}, {"type": "Feature", "properties": {"norad_id": 35680, "name": "IRIDIUM 33 DEB", "group": "iridium-33-debris", "lat": -68.37847390662768, "lon": -147.0962643207582, "alt_km": 746.9497741494497, "timestamp": "2025-12-09T09:46:48.031146+00:00", "meta": {"OBJECT_NAME": "IRIDIUM 33 DEB", "OBJECT_ID": "1997-051RJ", "EPOCH": "2025-12-07T09:19:47.246592", "MEAN_MOTION": 14.20776466, "ECCENTRICITY": 0.01503971, "INCLINATION": 86.1018, "RA_OF_ASC_NODE": 23.8914, "ARG_OF_PERICENTER": 295.6462, "MEAN_ANOMALY": 74.8204, "EPHEMERIS_TYPE": 0, "CLASSIFICATION_TYPE": "U", "NORAD_CAT_ID": 35680, "ELEMENT_SET_NO": 999, "REV_AT_EPOCH": 60625, "BSTAR": 0.0056071361, "MEAN_MOTION_DOT": 0.00013594, "MEAN_MOTION_DDOT": 0}, "tle": {"line1": "1 35680U 97051RJ  25341.38874128  .00013594  00000+0  56071-2 0  9992", "line2": "2 35680  86.1018  23.8914 0150397 295.6462  74.8204 14.20776466606251"}}, "geometry": {"type": "Point", "coordinates": [-147.0962643207582, -68.37847390662768]}}]}